[{"OBJECT_NAME":"STARLINK-34171","OBJECT_ID":"2025-107U","EPOCH":"2026-03-09T10:08:53.957472","MEAN_MOTION":15.27594899,"ECCENTRICITY":0.00012904,"INCLINATION":43.0027,"RA_OF_ASC_NODE":202.7098,"ARG_OF_PERICENTER":236.1366,"MEAN_ANOMALY":123.9363,"EPHEMERIS_TYPE":0,"CLASSIFICATION_TYPE":"U","NORAD_CAT_ID":64082,"ELEMENT_SET_NO":999,"REV_AT_EPOCH":4608,"BSTAR":0.0010825092,"MEAN_MOTION_DOT":0.0002966,"MEAN_MOTION_DDOT":0},{"OBJECT_NAME":"BANDWAGON-4 OBJECT N","OBJECT_ID":"2025-248N","EPOCH":"2026-03-09T00:44:39.250176","MEAN_MOTION":15.24369076,"ECCENTRICITY":0.00135211,"INCLINATION":45.4084,"RA_OF_ASC_NODE":294.9612,"ARG_OF_PERICENTER":206.7837,"MEAN_ANOMALY":153.2354,"EPHEMERIS_TYPE":0,"CLASSIFICATION_TYPE":"U","NORAD_CAT_ID":66305,"ELEMENT_SET_NO":999,"REV_AT_EPOCH":1717,"BSTAR":0.00097341364,"MEAN_MOTION_DOT":0.00024115,"MEAN_MOTION_DDOT":0}]
