STARLINK-34171          
1 64082U 25107U   26068.42284673  .00029660  00000+0  10825-2 0  9993
2 64082  43.0027 202.7098 0001290 236.1366 123.9363 15.27594899 46089
BANDWAGON-4 OBJECT N    
1 66305U 25248N   26068.03100984  .00024115  00000+0  97341-3 0  9997
2 66305  45.4084 294.9612 0013521 206.7837 153.2354 15.24369076 17177
